[
    {
        "Altitude(m)": 612513.920233643,
        "Argument of Periapsis(deg)": 0.0,
        "Eccentricity": 0.0,
        "Inclination(deg)": 60.0,
        "Latitude(deg)": -28.135926450973724,
        "Longitude(deg)": 172.91306260432586,
        "Mean Anomaly(deg)": 212.7273,
        "RAAN(deg)": 75.0,
        "Satellite Name": "Test1 343",
        "Satellite Number": 343,
        "Semi-Major Axis(m)": 6980739.136638005,
        "Time(s)": 0
    },
    {
        "Altitude(m)": 612708.2882666589,
        "Argument of Periapsis(deg)": 0.00010418945913296404,
        "Eccentricity": 0.0,
        "Inclination(deg)": 60.0,
        "Latitude(deg)": -28.64766622947115,
        "Longitude(deg)": 173.27029172932714,
        "Mean Anomaly(deg)": 213.34740614546183,
        "RAAN(deg)": 74.99957995086027,
        "Satellite Name": "Test1 343",
        "Satellite Number": 343,
        "Semi-Major Axis(m)": 6980739.136638005,
        "Time(s)": 10
    },
    {
        "Altitude(m)": 612903.4829828006,
        "Argument of Periapsis(deg)": 0.0002083789182659281,
        "Eccentricity": 0.0,
        "Inclination(deg)": 60.0,
        "Latitude(deg)": -29.158165864590575,
        "Longitude(deg)": 173.63138807011495,
        "Mean Anomaly(deg)": 213.96751229092365,
        "RAAN(deg)": 74.99915990172052,
        "Satellite Name": "Test1 343",
        "Satellite Number": 343,
        "Semi-Major Axis(m)": 6980739.136638005,
        "Time(s)": 20
    },
    {
        "Altitude(m)": 613099.4331719483,
        "Argument of Periapsis(deg)": 0.00031256837739889213,
        "Eccentricity": 0.0,
        "Inclination(deg)": 60.0,
        "Latitude(deg)": -29.667388287616077,
        "Longitude(deg)": 173.99646309728237,
        "Mean Anomaly(deg)": 214.5876184363855,
        "RAAN(deg)": 74.99873985258078,
        "Satellite Name": "Test1 343",
        "Satellite Number": 343,
        "Semi-Major Axis(m)": 6980739.136638005,
        "Time(s)": 30
    },
    {
        "Altitude(m)": 613296.0671421322,
        "Argument of Periapsis(deg)": 0.0004167578365318562,
        "Eccentricity": 0.0,
        "Inclination(deg)": 60.0,
        "Latitude(deg)": -30.175295439073196,
        "Longitude(deg)": 174.36563126886495,
        "Mean Anomaly(deg)": 215.20772458184732,
        "RAAN(deg)": 74.99831980344103,
        "Satellite Name": "Test1 343",
        "Satellite Number": 343,
        "Semi-Major Axis(m)": 6980739.136638005,
        "Time(s)": 40
    },
    {
        "Altitude(m)": 613493.3127512156,
        "Argument of Periapsis(deg)": 0.0005209472956648203,
        "Eccentricity": 0.0,
        "Inclination(deg)": 60.0,
        "Latitude(deg)": -30.681848230218367,
        "Longitude(deg)": 174.73900908802946,
        "Mean Anomaly(deg)": 215.82783072730916,
        "RAAN(deg)": 74.9978997543013,
        "Satellite Name": "Test1 343",
        "Satellite Number": 343,
        "Semi-Major Axis(m)": 6980739.136638005,
        "Time(s)": 50
    },
    {
        "Altitude(m)": 613691.0974388496,
        "Argument of Periapsis(deg)": 0.0006251367547977843,
        "Eccentricity": 0.0,
        "Inclination(deg)": 60.0,
        "Latitude(deg)": -31.187006503191878,
        "Longitude(deg)": 175.11671567375066,
        "Mean Anomaly(deg)": 216.44793687277104,
        "RAAN(deg)": 74.99747970516155,
        "Satellite Name": "Test1 343",
        "Satellite Number": 343,
        "Semi-Major Axis(m)": 6980739.136638005,
        "Time(s)": 60
    },
    {
        "Altitude(m)": 613889.3482584906,
        "Argument of Periapsis(deg)": 0.0007293262139307483,
        "Eccentricity": 0.0,
        "Inclination(deg)": 60.0,
        "Latitude(deg)": -31.69072898979089,
        "Longitude(deg)": 175.49887333143676,
        "Mean Anomaly(deg)": 217.06804301823286,
        "RAAN(deg)": 74.9970596560218,
        "Satellite Name": "Test1 343",
        "Satellite Number": 343,
        "Semi-Major Axis(m)": 6980739.136638005,
        "Time(s)": 70
    },
    {
        "Altitude(m)": 614087.9919096851,
        "Argument of Periapsis(deg)": 0.0008335156730637124,
        "Eccentricity": 0.0,
        "Inclination(deg)": 60.0,
        "Latitude(deg)": -32.19297326882185,
        "Longitude(deg)": 175.88560661044426,
        "Mean Anomaly(deg)": 217.68814916369462,
        "RAAN(deg)": 74.99663960688207,
        "Satellite Name": "Test1 343",
        "Satellite Number": 343,
        "Semi-Major Axis(m)": 6980739.136638005,
        "Time(s)": 80
    },
    {
        "Altitude(m)": 614286.9547704398,
        "Argument of Periapsis(deg)": 0.0009377051321966765,
        "Eccentricity": 0.0,
        "Inclination(deg)": 60.0,
        "Latitude(deg)": -32.69369572199892,
        "Longitude(deg)": 176.2770428740169,
        "Mean Anomaly(deg)": 218.3082553091565,
        "RAAN(deg)": 74.99621955774232,
        "Satellite Name": "Test1 343",
        "Satellite Number": 343,
        "Semi-Major Axis(m)": 6980739.136638005,
        "Time(s)": 90
    },
    {
        "Altitude(m)": 614486.1629297341,
        "Argument of Periapsis(deg)": 0.0010418945913296407,
        "Eccentricity": 0.0,
        "Inclination(deg)": 60.0,
        "Latitude(deg)": -33.19285148834895,
        "Longitude(deg)": 176.67331286854022,
        "Mean Anomaly(deg)": 218.9283614546183,
        "RAAN(deg)": 74.99579950860257,
        "Satellite Name": "Test1 343",
        "Satellite Number": 343,
        "Semi-Major Axis(m)": 6980739.136638005,
        "Time(s)": 100
    },
    {
        "Altitude(m)": 614685.5422201611,
        "Argument of Periapsis(deg)": 0.0011460840504626045,
        "Eccentricity": 0.0,
        "Inclination(deg)": 60.0,
        "Latitude(deg)": -33.69039441708423,
        "Longitude(deg)": 177.07454977897424,
        "Mean Anomaly(deg)": 219.54846760008016,
        "RAAN(deg)": 74.99537945946284,
        "Satellite Name": "Test1 343",
        "Satellite Number": 343,
        "Semi-Major Axis(m)": 6980739.136638005,
        "Time(s)": 110
    },
    {
        "Altitude(m)": 614885.0182506549,
        "Argument of Periapsis(deg)": 0.0012502735095955685,
        "Eccentricity": 0.0,
        "Inclination(deg)": 60.0,
        "Latitude(deg)": -34.18627701891509,
        "Longitude(deg)": 177.48088979591589,
        "Mean Anomaly(deg)": 220.16857374554195,
        "RAAN(deg)": 74.99495941032309,
        "Satellite Name": "Test1 343",
        "Satellite Number": 343,
        "Semi-Major Axis(m)": 6980739.136638005,
        "Time(s)": 120
    },
    {
        "Altitude(m)": 615084.5164393077,
        "Argument of Periapsis(deg)": 0.0013544629687285324,
        "Eccentricity": 0.0,
        "Inclination(deg)": 60.0,
        "Latitude(deg)": -34.68045041576631,
        "Longitude(deg)": 177.89247268108986,
        "Mean Anomaly(deg)": 220.7886798910038,
        "RAAN(deg)": 74.99453936118336,
        "Satellite Name": "Test1 343",
        "Satellite Number": 343,
        "Semi-Major Axis(m)": 6980739.136638005,
        "Time(s)": 130
    },
    {
        "Altitude(m)": 615283.9620462453,
        "Argument of Periapsis(deg)": 0.0014586524278614966,
        "Eccentricity": 0.0,
        "Inclination(deg)": 60.0,
        "Latitude(deg)": -35.17286428886657,
        "Longitude(deg)": 178.30944081803167,
        "Mean Anomaly(deg)": 221.40878603646564,
        "RAAN(deg)": 74.9941193120436,
        "Satellite Name": "Test1 343",
        "Satellite Number": 343,
        "Semi-Major Axis(m)": 6980739.136638005,
        "Time(s)": 140
    },
    {
        "Altitude(m)": 615483.2802065695,
        "Argument of Periapsis(deg)": 0.0015628418869944607,
        "Eccentricity": 0.0,
        "Inclination(deg)": 60.0,
        "Latitude(deg)": -35.66346682518955,
        "Longitude(deg)": 178.73193977330536,
        "Mean Anomaly(deg)": 222.0288921819275,
        "RAAN(deg)": 74.99369926290386,
        "Satellite Name": "Test1 343",
        "Satellite Number": 343,
        "Semi-Major Axis(m)": 6980739.136638005,
        "Time(s)": 150
    },
    {
        "Altitude(m)": 615682.3959633322,
        "Argument of Periapsis(deg)": 0.0016670313461274247,
        "Eccentricity": 0.0,
        "Inclination(deg)": 60.0,
        "Latitude(deg)": -36.15220466222099,
        "Longitude(deg)": 179.16011885493725,
        "Mean Anomaly(deg)": 222.64899832738934,
        "RAAN(deg)": 74.99327921376411,
        "Satellite Name": "Test1 343",
        "Satellite Number": 343,
        "Semi-Major Axis(m)": 6980739.136638005,
        "Time(s)": 160
    },
    {
        "Altitude(m)": 615881.2343005192,
        "Argument of Periapsis(deg)": 0.0017712208052603888,
        "Eccentricity": 0.0,
        "Inclination(deg)": 60.0,
        "Latitude(deg)": -36.639022831031575,
        "Longitude(deg)": 179.59413015470167,
        "Mean Anomaly(deg)": 223.2691044728511,
        "RAAN(deg)": 74.99285916462438,
        "Satellite Name": "Test1 343",
        "Satellite Number": 343,
        "Semi-Major Axis(m)": 6980739.136638005,
        "Time(s)": 170
    },
    {
        "Altitude(m)": 616079.720176077,
        "Argument of Periapsis(deg)": 0.001875410264393353,
        "Eccentricity": 0.0,
        "Inclination(deg)": 60.0,
        "Latitude(deg)": -37.12386469764714,
        "Longitude(deg)": -179.9658709005367,
        "Mean Anomaly(deg)": 223.88921061831294,
        "RAAN(deg)": 74.99243911548463,
        "Satellite Name": "Test1 343",
        "Satellite Number": 343,
        "Semi-Major Axis(m)": 6980739.136638005,
        "Time(s)": 180
    },
    {
        "Altitude(m)": 616277.77855487,
        "Argument of Periapsis(deg)": 0.0019795997235263173,
        "Eccentricity": 0.0,
        "Inclination(deg)": 60.0,
        "Latitude(deg)": -37.606671902706125,
        "Longitude(deg)": -179.51972500189163,
        "Mean Anomaly(deg)": 224.50931676377482,
        "RAAN(deg)": 74.9920190663449,
        "Satellite Name": "Test1 343",
        "Satellite Number": 343,
        "Semi-Major Axis(m)": 6980739.136638005,
        "Time(s)": 190
    }
]